STARLINK-3929           
1 52567U 22051AL  25206.76516332  .00000414  00000+0  44134-4 0  9991
2 52567  53.2190  57.8274 0001365  90.3173 269.7975 15.08837024177321
STARLINK-3930           
1 52568U 22051AM  25206.75412627  .00000175  00000+0  29066-4 0  9994
2 52568  53.2178  57.8751 0001352  92.4165 267.6982 15.08833165177325
STARLINK-3927           
1 52569U 22051AN  25206.96020839 -.00000324  00000+0 -22878-5 0  9991
2 52569  53.2190  56.9501 0001407  91.4719 268.6435 15.08836190177424
STARLINK-3901           
1 52574U 22051AQ  25206.75780505 -.00000816  00000+0 -33203-4 0  9996
2 52574  53.2188  57.8605 0001574 102.8078 257.3090 15.08828192177326
STARLINK-3920           
1 52575U 22051AR  25207.25001157  .00010556  00000+0  52979-3 0  9992
2 52575  53.2180  54.8382 0001556  70.4565 205.0344 15.17847572177481
STARLINK-3932           
1 52576U 22051AS  25207.00532792  .00000362  00000+0  40862-4 0  9993
2 52576  53.2184  56.7443 0001313 103.3633 256.7505 15.08830200177435
STARLINK-3836           
1 52577U 22051AT  25206.06275795 -.00001107  00000+0 -51485-4 0  9999
2 52577  53.2168  75.9786 0001263  94.2027 265.9109 15.08831244177015
STARLINK-3833           
1 52578U 22051AU  25206.99378141  .00000540  00000+0  52034-4 0  9990
2 52578  53.2175  71.7974 0001294  89.4266 270.6875 15.08837440177222
STARLINK-3893           
1 52579U 22051AV  25206.91649776 -.00000233  00000+0  34759-5 0  9993
2 52579  53.2179  72.1502 0001341  94.2604 265.8541 15.08843359177145
STARLINK-3919           
1 52580U 22051AW  25206.78866411 -.00000246  00000+0  26388-5 0  9990
2 52580  53.2187  72.7320 0001297  97.5597 262.5543 15.08832710177120
STARLINK-3915           
1 52581U 22051AX  25206.73572261 -.00002334  00000+0 -12863-3 0  9995
2 52581  53.2182  57.9541 0001348 119.8256 240.2871 15.08839598177323
STARLINK-3895           
1 52583U 22051AZ  25206.99699894 -.00000290  00000+0 -14602-6 0  9992
2 52583  53.2183  56.7809 0001464 107.1893 252.9260 15.08840194177434
STARLINK-3922           
1 52584U 22051BA  25207.00435979 -.00000647  00000+0 -22563-4 0  9997
2 52584  53.2188  56.7476 0001388 105.5716 254.5430 15.08839877177434
STARLINK-3906           
1 52585U 22051BB  25205.99235559  .00000012  00000+0  18843-4 0  9996
2 52585  53.2177  61.2551 0001400  87.5103 272.6050 15.08840023177212
STARLINK-3910           
1 52586U 22051BC  25206.72835954 -.00000135  00000+0  95963-5 0  9990
2 52586  53.2164  57.9882 0001597 137.0181 223.0936 15.08842150177320
STARLINK-3867           
1 52587U 22051BD  25206.97218537 -.00000926  00000+0 -40100-4 0  9991
2 52587  53.2175  56.7513 0001404  92.3690 267.7463 15.08840282177432
STARLINK-3917           
1 52588U 22051BE  25206.78358034 -.00000942  00000+0 -41088-4 0  9992
2 52588  53.2180  57.7466 0002114  83.0175 277.1058 15.08835414177336
STARLINK-4019           
1 52598U 22052A   25206.49054442 -.00000042  00000+0  15458-4 0  9990
2 52598  53.2170 224.0597 0001206  88.0151 272.0979 15.08837191177284
STARLINK-4024           
1 52599U 22052B   25207.20677692  .00000206  00000+0  31006-4 0  9997
2 52599  53.2170 215.9494 0001062  77.3639 282.7471 15.08838387177038
STARLINK-4026           
1 52600U 22052C   25207.18468302 -.00000132  00000+0  98006-5 0  9996
2 52600  53.2161 215.9407 0001011  70.9937 289.1165 15.08834248177032
STARLINK-4027           
1 52601U 22052D   25206.33092367 -.00000569  00000+0 -17649-4 0  9995
2 52601  53.2156 219.7729 0001174  74.9204 285.1918 15.08839309177335
STARLINK-4012           
1 52602U 22052E   25206.32724280 -.00000512  00000+0 -14098-4 0  9994
2 52602  53.2159 219.7890 0000917  73.0038 287.1054 15.08833833177336
STARLINK-4016           
1 52603U 22052F   25207.17460051 -.00000056  00000+0  14562-4 0  9990
2 52603  53.2161 215.9971 0000917  77.7304 282.3791 15.08834499177036
STARLINK-4013           
1 52604U 22052G   25206.31988025 -.00000754  00000+0 -29265-4 0  9994
2 52604  53.2154 219.8219 0001223  83.6510 276.4621 15.08835350176530
STARLINK-4000           
1 52605U 22052H   25207.19435321 -.00000056  00000+0  14587-4 0  9993
2 52605  53.2159 220.6754 0000963  80.0424 280.0677 15.08835195176961
STARLINK-3928           
1 52606U 22052J   25207.17732409 -.00001061  00000+0 -48564-4 0  9999
2 52606  53.2162 215.9737 0001226  87.6002 272.5131 15.08844583177033
STARLINK-3947           
1 52607U 22052K   25207.20910609 -.00001091  00000+0 -50502-4 0  9992
2 52607  53.2165 220.8420 0001133  76.7419 283.3699 15.08831897176963
STARLINK-3979           
1 52608U 22052L   25207.16996086 -.00001188  00000+0 -56548-4 0  9994
2 52608  53.2160 216.0081 0001352  86.0258 274.0888 15.08841205177037
STARLINK-3997           
1 52609U 22052M   25206.36403893  .00000937  00000+0  76957-4 0  9990
2 52609  53.2165 219.5790 0001068  94.9508 265.1606 15.08845019176549
STARLINK-3998           
1 52610U 22052N   25207.21182546 -.00001047  00000+0 -47730-4 0  9998
2 52610  53.2171 220.8215 0001239  81.8510 278.2622 15.08834469176969
STARLINK-3980           
1 52611U 22052P   25207.20446337  .00000064  00000+0  22090-4 0  9997
2 52611  53.2162 220.8518 0000860  76.7719 283.3369 15.08834847176964
STARLINK-4002           
1 52612U 22052Q   25207.16628048  .00000398  00000+0  43103-4 0  9992
2 52612  53.2162 216.0257 0001075  79.3372 280.7741 15.08837675177031
STARLINK-3982           
1 52614U 22052S   25207.21871915 -.00000939  00000+0 -40944-4 0  9996
2 52614  53.2147 205.7873 0001239  76.7911 283.3219 15.08836019177172
STARLINK-4011           
1 52615U 22052T   25207.20078555 -.00001462  00000+0 -73810-4 0  9995
2 52615  53.2153 220.8664 0001165  79.0569 281.0554 15.08839799176960
STARLINK-4015           
1 52616U 22052U   25207.21136163 -.00000297  00000+0 -56707-6 0  9990
2 52616  53.2167 205.8225 0001019  78.5590 281.5516 15.08836732177179
STARLINK-3996           
1 52617U 22052V   25207.20400727  .00000867  00000+0  72521-4 0  9991
2 52617  53.2162 205.8560 0001098  68.9230 291.1879 15.08841230177176
STARLINK-3983           
1 52618U 22052W   25206.28031963 -.00000357  00000+0 -43627-5 0  9993
2 52618  53.2157 210.0015 0001150  78.7225 281.3896 15.08841017177034
STARLINK-3741           
1 52619U 22052X   25207.20031387 -.00000670  00000+0 -24036-4 0  9997
2 52619  53.2177 205.8634 0001348  79.3309 280.7835 15.08837866177173
STARLINK-3975           
1 52620U 22052Y   25207.19710367 -.00000640  00000+0 -22121-4 0  9999
2 52620  53.2157 220.8856 0001111  77.7203 282.3914 15.08833720176966
STARLINK-3984           
1 52621U 22052Z   25207.19295675  .00000426  00000+0  44851-4 0  9994
2 52621  53.2160 205.9059 0001001  75.5326 284.5777 15.08841535177178
STARLINK-4008           
1 52622U 22052AA  25206.36542441 -.00000592  00000+0 -19110-4 0  9995
2 52622  53.2163 224.6221 0001138  83.4178 276.6944 15.08834352176463
STARLINK-3986           
1 52623U 22052AB  25207.18928079  .00000075  00000+0  22799-4 0  9993
2 52623  53.2165 205.9221 0000919  80.5271 279.5825 15.08839397177179
STARLINK-3988           
1 52625U 22052AD  25206.39072303 -.00000167  00000+0  75890-5 0  9991
2 52625  53.2162 209.5071 0001005  76.8552 283.2552 15.08835453176670
STARLINK-3990           
1 52626U 22052AE  25207.19664031 -.00000128  00000+0  10028-4 0  9994
2 52626  53.2164 205.8899 0001213  74.9685 285.1441 15.08838568177171
STARLINK-3992           
1 52627U 22052AF  25207.17456599 -.00000616  00000+0 -20620-4 0  9993
2 52627  53.2158 205.9860 0001167  82.3203 277.7921 15.08833110177179
STARLINK-4001           
1 52628U 22052AG  25206.49422455 -.00000258  00000+0  18790-5 0  9999
2 52628  53.2177 224.0439 0001326  70.0358 290.0777 15.08836144176487
STARLINK-4022           
1 52629U 22052AH  25206.30608532 -.00000655  00000+0 -23083-4 0  9994
2 52629  53.2177 209.8506 0001496  95.5991 264.5171 15.08838384176669
STARLINK-3989           
1 52630U 22052AJ  25207.18192524 -.00000736  00000+0 -28187-4 0  9992
2 52630  53.2165 205.9559 0001014  88.9383 271.1725 15.08834352177177
STARLINK-3794           
1 52631U 22052AK  25207.16816338 -.00000071  00000+0  13646-4 0  9992
2 52631  53.2160 206.0247 0001114  81.6364 278.4755 15.08834321177178
STARLINK-3995           
1 52632U 22052AL  25207.17824946 -.00000808  00000+0 -32707-4 0  9996
2 52632  53.2161 205.9711 0001167  83.5793 276.5332 15.08831125177178
STARLINK-3994           
1 52633U 22052AM  25206.36128078 -.00000402  00000+0 -71494-5 0  9997
2 52633  53.2161 209.6368 0001366  68.7742 291.3396 15.08835671176688
STARLINK-3974           
1 52634U 22052AN  25206.30977398 -.00001525  00000+0 -77764-4 0  9991
2 52634  53.2158 209.8952 0001597  63.5883 296.5273 15.08827338176661
STARLINK-3978           
1 52635U 22052AP  25206.27756314 -.00000063  00000+0  14128-4 0  9991
2 52635  53.2160 200.0138 0001024  77.4695 282.6412 15.08832765176801
STARLINK-3967           
1 52636U 22052AQ  25207.16352675  .00000365  00000+0  41025-4 0  9993
2 52636  53.2159 206.0385 0001268  58.9482 301.1634 15.08847939177171
STARLINK-3961           
1 52637U 22052AR  25207.20126069  .00001726  00000+0  12659-3 0  9997
2 52637  53.2159 195.8688 0001048  78.1705 281.9405 15.08817423177313
STARLINK-3941           
1 52638U 22052AS  25206.29872231 -.00000384  00000+0 -60490-5 0  9994
2 52638  53.2157 209.9177 0001187  81.0981 279.0145 15.08834111177474
STARLINK-3968           
1 52639U 22052AT  25206.39532064 -.00000826  00000+0 -33816-4 0  9995
2 52639  53.2163 199.4854 0001092  80.8129 279.2986 15.08838209177627
STARLINK-3977           
1 52640U 22052AU  25207.20860777 -.00000615  00000+0 -20570-4 0  9992
2 52640  53.2159 195.8623 0001199  81.1844 278.9284 15.08833958177313
STARLINK-3991           
1 52641U 22052AV  25207.20590694 -.00000390  00000+0 -64379-5 0  9997
2 52641  53.2157 196.0486 0001165  53.0458 307.0641 15.08830449177317
